ASTRA 2G                
1 40364U 14089A   26095.21711404  .00000151  00000+0  00000+0 0  9996
2 40364   0.0510   3.2595 0004924  42.3758 254.2388  1.00273844 41238
FENGYUN 2G              
1 40367U 14090A   26095.25129300 -.00000300  00000+0  00000+0 0  9990
2 40367   5.4547  73.6840 0002385 135.5167 174.1867  1.00291385 41267
INMARSAT 5-F2           
1 40384U 15005A   26095.09229222  .00000000  00000+0  00000+0 0  9998
2 40384   0.0151 193.9324 0000913 186.1660 151.5245  1.00268400 40266
ABS-3A                  
1 40424U 15010A   26095.24525655 -.00000025  00000+0  00000+0 0  9993
2 40424   0.0101 124.7009 0001330 202.9253 311.2319  1.00270748 40644
EUTELSAT 115 WEST B     
1 40425U 15010B   26095.22307276 -.00000024  00000+0  00000+0 0  9998
2 40425   0.0178  55.2383 0000295 213.1155 250.5811  1.00270619 40667
EXPRESS-AM7             
1 40505U 15012A   26095.25374993  .00000152  00000+0  00000+0 0  9993
2 40505   0.0005 176.1913 0003124 192.6203 316.0904  1.00270436 40271
BEIDOU-3S IGSO-1S       
1 40549U 15019A   26082.29086919 -.00000163  00000+0  00000+0 0  9999
2 40549  49.3559 296.4949 0036261 190.1236 255.1180  1.00268843 40213
THOR 7                  
1 40613U 15022A   26095.22822667 -.00000007  00000+0  00000+0 0  9997
2 40613   0.0269 114.2541 0002708 264.3808 256.3935  1.00272260 40084
TURKMENALEM52E/MONACOSAT
1 40617U 15023A   26095.18485262  .00000105  00000+0  00000+0 0  9991
2 40617   0.0218 108.1516 0003112 269.9803 293.9188  1.00270574 40119
DIRECTV 15              
1 40663U 15026A   26095.13933712 -.00000101  00000+0  00000+0 0  9995
2 40663   0.0332  92.6431 0000377  63.9851 344.0959  1.00272271 39731
SKY MEXICO-1            
1 40664U 15026B   26095.16919711 -.00000233  00000+0  00000+0 0  9998
2 40664   0.0191 117.2639 0002606 283.6419 134.6689  1.00271759 39729
METEOSAT-11 (MSG-4)     
1 40732U 15034A   26095.22822667  .00000065  00000+0  00000+0 0  9995
2 40732   3.0186  71.4910 0001744 284.9949 288.5195  1.00276148  6484
STAR ONE C4             
1 40733U 15034B   26095.17851948  .00000000  00000+0  00000+0 0  9993
2 40733   0.0139  46.3596 0002814 329.9608 171.4335  1.00270697 39285
WGS F7 (USA 263)        
1 40746U 15036A   26095.13787909  .00000019  00000+0  00000+0 0  9990
2 40746   0.0143 223.5748 0001434 260.5543 293.9393  1.00271894 39135
INTELSAT 34 (IS-34)     
1 40874U 15039A   26095.09220556 -.00000284  00000+0  00000+0 0  9995
2 40874   0.0220 270.2875 0000058  41.2438 219.5693  1.00273794 38891
EUTELSAT 8 WEST B       
1 40875U 15039B   26095.24421655 -.00000064  00000+0  00000+0 0  9992
2 40875   0.0698  10.8793 0003807   4.7779 257.8189  1.00272371 38924
GSAT-6                  
1 40880U 15041A   26095.11959235 -.00000158  00000+0  00000+0 0  9991
2 40880   1.7305  83.4938 0003026 299.1119 296.4040  1.00270127 38866
